{
    "links": {
        "self": "http://www.neowsapp.com/rest/v1/neo/3825588?api_key=iIulBulltgU6a56xZRHN4H3l9WmuAYTsLGpBGhQ2"
    },
    "id": "3825588",
    "neo_reference_id": "3825588",
    "name": "(2018 NW1)",
    "designation": "2018 NW1",
    "nasa_jpl_url": "http://ssd.jpl.nasa.gov/sbdb.cgi?sstr=3825588",
    "absolute_magnitude_h": 25.3,
    "estimated_diameter": {
        "kilometers": {
            "estimated_diameter_min": 0.0231502122,
            "estimated_diameter_max": 0.0517654482
        },
        "meters": {
            "estimated_diameter_min": 23.150212221,
            "estimated_diameter_max": 51.7654482198
        },
        "miles": {
            "estimated_diameter_min": 0.0143848705,
            "estimated_diameter_max": 0.0321655483
        },
        "feet": {
            "estimated_diameter_min": 75.9521422633,
            "estimated_diameter_max": 169.8341531374
        }
    },
    "is_potentially_hazardous_asteroid": false,
    "close_approach_data": [
        {
            "close_approach_date": "2018-07-14",
            "close_approach_date_full": "2018-Jul-14 07:32",
            "epoch_date_close_approach": 1531553520000,
            "relative_velocity": {
                "kilometers_per_second": "9.1914326807",
                "kilometers_per_hour": "33089.1576505936",
                "miles_per_hour": "20560.3157635036"
            },
            "miss_distance": {
                "astronomical": "0.0254374451",
                "lunar": "9.8951661439",
                "kilometers": "3805387.605201937",
                "miles": "2364558.2118512506"
            },
            "orbiting_body": "Earth"
        }
    ],
    "orbital_data": {
        "orbit_id": "7",
        "orbit_determination_date": "2018-07-20 06:23:24",
        "first_observation_date": "2018-07-10",
        "last_observation_date": "2018-07-19",
        "data_arc_in_days": 9,
        "observations_used": 37,
        "orbit_uncertainty": "7",
        "minimum_orbit_intersection": ".0214566",
        "jupiter_tisserand_invariant": "3.742",
        "epoch_osculation": "2459000.5",
        "eccentricity": ".4649043784246664",
        "semi_major_axis": "1.936983937775343",
        "inclination": "12.28222957915891",
        "ascending_node_longitude": "108.6507286098388",
        "orbital_period": "984.6626302530229",
        "perihelion_distance": "1.036471624165334",
        "perihelion_argument": "185.433393762318",
        "aphelion_distance": "2.837496251385351",
        "perihelion_time": "2459301.421439888250",
        "mean_anomaly": "249.9808776820009",
        "mean_motion": ".365607456746371",
        "equinox": "J2000",
        "orbit_class": {
            "orbit_class_type": "AMO",
            "orbit_class_description": "Near-Earth asteroid orbits similar to that of 1221 Amor",
            "orbit_class_range": "1.017 AU < q (perihelion) < 1.3 AU"
        }
    },
    "is_sentry_object": false
}